<?xml version="1.0" encoding="UTF-8"?>
<ndm xmlns:xsi="http://www.w3.org/2001/XMLSchema-instance" xsi:noNamespaceSchemaLocation="https://sanaregistry.org/r/ndmxml_unqualified/ndmxml-2.0.0-master-2.0.xsd">
<omm id="CCSDS_OMM_VERS" version="2.0">
<header><CREATION_DATE/><ORIGINATOR/></header><body><segment><metadata><OBJECT_NAME>KUIPER-00061</OBJECT_NAME><OBJECT_ID>2025-134X</OBJECT_ID><CENTER_NAME>EARTH</CENTER_NAME><REF_FRAME>TEME</REF_FRAME><TIME_SYSTEM>UTC</TIME_SYSTEM><MEAN_ELEMENT_THEORY>SGP4</MEAN_ELEMENT_THEORY></metadata><data><meanElements><EPOCH>2025-08-08T01:53:27.257280</EPOCH><MEAN_MOTION>15.35940029</MEAN_MOTION><ECCENTRICITY>.0005208</ECCENTRICITY><INCLINATION>51.8756</INCLINATION><RA_OF_ASC_NODE>111.0081</RA_OF_ASC_NODE><ARG_OF_PERICENTER>272.1599</ARG_OF_PERICENTER><MEAN_ANOMALY>87.8790</MEAN_ANOMALY></meanElements><tleParameters><EPHEMERIS_TYPE>0</EPHEMERIS_TYPE><CLASSIFICATION_TYPE>U</CLASSIFICATION_TYPE><NORAD_CAT_ID>64521</NORAD_CAT_ID><ELEMENT_SET_NO>999</ELEMENT_SET_NO><REV_AT_EPOCH>779</REV_AT_EPOCH><BSTAR>.9371E-3</BSTAR><MEAN_MOTION_DOT>.33062E-3</MEAN_MOTION_DOT><MEAN_MOTION_DDOT>0</MEAN_MOTION_DDOT></tleParameters></data></segment></body></omm>
<omm id="CCSDS_OMM_VERS" version="2.0">
<header><CREATION_DATE/><ORIGINATOR/></header><body><segment><metadata><OBJECT_NAME>KUIPER-00062</OBJECT_NAME><OBJECT_ID>2025-134Y</OBJECT_ID><CENTER_NAME>EARTH</CENTER_NAME><REF_FRAME>TEME</REF_FRAME><TIME_SYSTEM>UTC</TIME_SYSTEM><MEAN_ELEMENT_THEORY>SGP4</MEAN_ELEMENT_THEORY></metadata><data><meanElements><EPOCH>2025-08-08T04:00:01.999584</EPOCH><MEAN_MOTION>15.25018190</MEAN_MOTION><ECCENTRICITY>.0006928</ECCENTRICITY><INCLINATION>51.8778</INCLINATION><RA_OF_ASC_NODE>111.0719</RA_OF_ASC_NODE><ARG_OF_PERICENTER>269.6381</ARG_OF_PERICENTER><MEAN_ANOMALY>4.8096</MEAN_ANOMALY></meanElements><tleParameters><EPHEMERIS_TYPE>0</EPHEMERIS_TYPE><CLASSIFICATION_TYPE>U</CLASSIFICATION_TYPE><NORAD_CAT_ID>64522</NORAD_CAT_ID><ELEMENT_SET_NO>999</ELEMENT_SET_NO><REV_AT_EPOCH>779</REV_AT_EPOCH><BSTAR>-.45331E-1</BSTAR><MEAN_MOTION_DOT>-.1053962E-1</MEAN_MOTION_DOT><MEAN_MOTION_DDOT>0</MEAN_MOTION_DDOT></tleParameters></data></segment></body></omm>
<omm id="CCSDS_OMM_VERS" version="2.0">
<header><CREATION_DATE/><ORIGINATOR/></header><body><segment><metadata><OBJECT_NAME>KUIPER-00063</OBJECT_NAME><OBJECT_ID>2025-134Z</OBJECT_ID><CENTER_NAME>EARTH</CENTER_NAME><REF_FRAME>TEME</REF_FRAME><TIME_SYSTEM>UTC</TIME_SYSTEM><MEAN_ELEMENT_THEORY>SGP4</MEAN_ELEMENT_THEORY></metadata><data><meanElements><EPOCH>2025-08-08T04:00:01.999584</EPOCH><MEAN_MOTION>15.28789513</MEAN_MOTION><ECCENTRICITY>.0003038</ECCENTRICITY><INCLINATION>51.8777</INCLINATION><RA_OF_ASC_NODE>110.5389</RA_OF_ASC_NODE><ARG_OF_PERICENTER>235.0652</ARG_OF_PERICENTER><MEAN_ANOMALY>276.9029</MEAN_ANOMALY></meanElements><tleParameters><EPHEMERIS_TYPE>0</EPHEMERIS_TYPE><CLASSIFICATION_TYPE>U</CLASSIFICATION_TYPE><NORAD_CAT_ID>64523</NORAD_CAT_ID><ELEMENT_SET_NO>999</ELEMENT_SET_NO><REV_AT_EPOCH>780</REV_AT_EPOCH><BSTAR>-.30471E-1</BSTAR><MEAN_MOTION_DOT>-.801373E-2</MEAN_MOTION_DOT><MEAN_MOTION_DDOT>0</MEAN_MOTION_DDOT></tleParameters></data></segment></body></omm>
<omm id="CCSDS_OMM_VERS" version="2.0">
<header><CREATION_DATE/><ORIGINATOR/></header><body><segment><metadata><OBJECT_NAME>KUIPER-00064</OBJECT_NAME><OBJECT_ID>2025-134AA</OBJECT_ID><CENTER_NAME>EARTH</CENTER_NAME><REF_FRAME>TEME</REF_FRAME><TIME_SYSTEM>UTC</TIME_SYSTEM><MEAN_ELEMENT_THEORY>SGP4</MEAN_ELEMENT_THEORY></metadata><data><meanElements><EPOCH>2025-08-08T04:00:01.999584</EPOCH><MEAN_MOTION>15.31474772</MEAN_MOTION><ECCENTRICITY>.0001379</ECCENTRICITY><INCLINATION>51.8788</INCLINATION><RA_OF_ASC_NODE>110.2617</RA_OF_ASC_NODE><ARG_OF_PERICENTER>324.2791</ARG_OF_PERICENTER><MEAN_ANOMALY>336.4591</MEAN_ANOMALY></meanElements><tleParameters><EPHEMERIS_TYPE>0</EPHEMERIS_TYPE><CLASSIFICATION_TYPE>U</CLASSIFICATION_TYPE><NORAD_CAT_ID>64524</NORAD_CAT_ID><ELEMENT_SET_NO>999</ELEMENT_SET_NO><REV_AT_EPOCH>811</REV_AT_EPOCH><BSTAR>.24786E-2</BSTAR><MEAN_MOTION_DOT>.76871E-3</MEAN_MOTION_DOT><MEAN_MOTION_DDOT>0</MEAN_MOTION_DDOT></tleParameters></data></segment></body></omm>
<omm id="CCSDS_OMM_VERS" version="2.0">
<header><CREATION_DATE/><ORIGINATOR/></header><body><segment><metadata><OBJECT_NAME>KUIPER-00065</OBJECT_NAME><OBJECT_ID>2025-134AB</OBJECT_ID><CENTER_NAME>EARTH</CENTER_NAME><REF_FRAME>TEME</REF_FRAME><TIME_SYSTEM>UTC</TIME_SYSTEM><MEAN_ELEMENT_THEORY>SGP4</MEAN_ELEMENT_THEORY></metadata><data><meanElements><EPOCH>2025-08-08T04:00:01.999584</EPOCH><MEAN_MOTION>15.19747126</MEAN_MOTION><ECCENTRICITY>.0007469</ECCENTRICITY><INCLINATION>51.8808</INCLINATION><RA_OF_ASC_NODE>111.4057</RA_OF_ASC_NODE><ARG_OF_PERICENTER>275.3650</ARG_OF_PERICENTER><MEAN_ANOMALY>127.7865</MEAN_ANOMALY></meanElements><tleParameters><EPHEMERIS_TYPE>0</EPHEMERIS_TYPE><CLASSIFICATION_TYPE>U</CLASSIFICATION_TYPE><NORAD_CAT_ID>64525</NORAD_CAT_ID><ELEMENT_SET_NO>999</ELEMENT_SET_NO><REV_AT_EPOCH>803</REV_AT_EPOCH><BSTAR>-.59248E-1</BSTAR><MEAN_MOTION_DOT>-.118269E-1</MEAN_MOTION_DOT><MEAN_MOTION_DDOT>0</MEAN_MOTION_DDOT></tleParameters></data></segment></body></omm>
<omm id="CCSDS_OMM_VERS" version="2.0">
<header><CREATION_DATE/><ORIGINATOR/></header><body><segment><metadata><OBJECT_NAME>KUIPER-00066</OBJECT_NAME><OBJECT_ID>2025-134AC</OBJECT_ID><CENTER_NAME>EARTH</CENTER_NAME><REF_FRAME>TEME</REF_FRAME><TIME_SYSTEM>UTC</TIME_SYSTEM><MEAN_ELEMENT_THEORY>SGP4</MEAN_ELEMENT_THEORY></metadata><data><meanElements><EPOCH>2025-08-08T04:00:01.999584</EPOCH><MEAN_MOTION>15.31796277</MEAN_MOTION><ECCENTRICITY>.0000767</ECCENTRICITY><INCLINATION>51.8785</INCLINATION><RA_OF_ASC_NODE>110.2923</RA_OF_ASC_NODE><ARG_OF_PERICENTER>223.4165</ARG_OF_PERICENTER><MEAN_ANOMALY>48.8870</MEAN_ANOMALY></meanElements><tleParameters><EPHEMERIS_TYPE>0</EPHEMERIS_TYPE><CLASSIFICATION_TYPE>U</CLASSIFICATION_TYPE><NORAD_CAT_ID>64526</NORAD_CAT_ID><ELEMENT_SET_NO>999</ELEMENT_SET_NO><REV_AT_EPOCH>780</REV_AT_EPOCH><BSTAR>-.70606E-2</BSTAR><MEAN_MOTION_DOT>-.214148E-2</MEAN_MOTION_DOT><MEAN_MOTION_DDOT>0</MEAN_MOTION_DDOT></tleParameters></data></segment></body></omm>
<omm id="CCSDS_OMM_VERS" version="2.0">
<header><CREATION_DATE/><ORIGINATOR/></header><body><segment><metadata><OBJECT_NAME>KUIPER-00069</OBJECT_NAME><OBJECT_ID>2025-151A</OBJECT_ID><CENTER_NAME>EARTH</CENTER_NAME><REF_FRAME>TEME</REF_FRAME><TIME_SYSTEM>UTC</TIME_SYSTEM><MEAN_ELEMENT_THEORY>SGP4</MEAN_ELEMENT_THEORY></metadata><data><meanElements><EPOCH>2025-08-08T01:02:14.500032</EPOCH><MEAN_MOTION>15.35879968</MEAN_MOTION><ECCENTRICITY>.0005062</ECCENTRICITY><INCLINATION>51.8772</INCLINATION><RA_OF_ASC_NODE>177.7674</RA_OF_ASC_NODE><ARG_OF_PERICENTER>215.8104</ARG_OF_PERICENTER><MEAN_ANOMALY>144.2543</MEAN_ANOMALY></meanElements><tleParameters><EPHEMERIS_TYPE>0</EPHEMERIS_TYPE><CLASSIFICATION_TYPE>U</CLASSIFICATION_TYPE><NORAD_CAT_ID>64816</NORAD_CAT_ID><ELEMENT_SET_NO>999</ELEMENT_SET_NO><REV_AT_EPOCH>467</REV_AT_EPOCH><BSTAR>.42313E-3</BSTAR><MEAN_MOTION_DOT>.14651E-3</MEAN_MOTION_DOT><MEAN_MOTION_DDOT>0</MEAN_MOTION_DDOT></tleParameters></data></segment></body></omm>

</ndm>
