KUIPER-00061            
1 64521U 25134X   25220.07878770  .00033062  00000+0  93710-3 0  9994
2 64521  51.8756 111.0081 0005208 272.1599  87.8790 15.35940029  7794
KUIPER-00062            
1 64522U 25134Y   25220.16668981 -.01053962  00000+0 -45331-1 0  9994
2 64522  51.8778 111.0719 0006928 269.6381   4.8096 15.25018190  7799
KUIPER-00063            
1 64523U 25134Z   25220.16668981 -.00801373  00000+0 -30471-1 0  9990
2 64523  51.8777 110.5389 0003038 235.0652 276.9029 15.28789513  7800
KUIPER-00064            
1 64524U 25134AA  25220.16668981  .00076871  00000+0  24786-2 0  9999
2 64524  51.8788 110.2617 0001379 324.2791 336.4591 15.31474772  8118
KUIPER-00065            
1 64525U 25134AB  25220.16668981 -.01182690  00000+0 -59248-1 0  9990
2 64525  51.8808 111.4057 0007469 275.3650 127.7865 15.19747126  8037
KUIPER-00066            
1 64526U 25134AC  25220.16668981 -.00214148  00000+0 -70606-2 0  9996
2 64526  51.8785 110.2923 0000767 223.4165  48.8870 15.31796277  7808
KUIPER-00069            
1 64816U 25151A   25220.04322338  .00014651  00000+0  42313-3 0  9997
2 64816  51.8772 177.7674 0005062 215.8104 144.2543 15.35879968  4671
